[{"OBJECT_NAME":"ONEWEB-0611","OBJECT_ID":"2022-166AJ","EPOCH":"2026-03-09T22:39:44.150400","MEAN_MOTION":13.2182812,"ECCENTRICITY":0.00017655,"INCLINATION":87.9164,"RA_OF_ASC_NODE":263.7694,"ARG_OF_PERICENTER":95.5787,"MEAN_ANOMALY":264.5548,"EPHEMERIS_TYPE":0,"CLASSIFICATION_TYPE":"U","NORAD_CAT_ID":54674,"ELEMENT_SET_NO":999,"REV_AT_EPOCH":15833,"BSTAR":2.0979717e-5,"MEAN_MOTION_DOT":2.2e-7,"MEAN_MOTION_DDOT":0},{"OBJECT_NAME":"SL-14 DEB","OBJECT_ID":"1991-056BH","EPOCH":"2026-03-06T06:58:20.374176","MEAN_MOTION":13.39289459,"ECCENTRICITY":0.00884722,"INCLINATION":82.5817,"RA_OF_ASC_NODE":164.9984,"ARG_OF_PERICENTER":131.5414,"MEAN_ANOMALY":229.3353,"EPHEMERIS_TYPE":0,"CLASSIFICATION_TYPE":"U","NORAD_CAT_ID":45319,"ELEMENT_SET_NO":999,"REV_AT_EPOCH":29347,"BSTAR":0.003041541,"MEAN_MOTION_DOT":1.688e-5,"MEAN_MOTION_DDOT":0}]
